[{"OBJECT_NAME":"STARLINK-37094","OBJECT_ID":"2026-054K","EPOCH":"2026-03-31T07:21:17.579808","MEAN_MOTION":15.80935106,"ECCENTRICITY":0.00011142,"INCLINATION":53.1599,"RA_OF_ASC_NODE":204.2612,"ARG_OF_PERICENTER":117.6905,"MEAN_ANOMALY":242.4231,"EPHEMERIS_TYPE":0,"CLASSIFICATION_TYPE":"U","NORAD_CAT_ID":68241,"ELEMENT_SET_NO":999,"REV_AT_EPOCH":219,"BSTAR":0.00099235458,"MEAN_MOTION_DOT":0.00200342,"MEAN_MOTION_DDOT":0},{"OBJECT_NAME":"STARLINK-36356","OBJECT_ID":"2026-054L","EPOCH":"2026-03-30T17:41:00.354624","MEAN_MOTION":15.80312,"ECCENTRICITY":5.033e-5,"INCLINATION":53.1596,"RA_OF_ASC_NODE":207.1073,"ARG_OF_PERICENTER":49.8547,"MEAN_ANOMALY":310.252,"EPHEMERIS_TYPE":0,"CLASSIFICATION_TYPE":"U","NORAD_CAT_ID":68242,"ELEMENT_SET_NO":999,"REV_AT_EPOCH":210,"BSTAR":-0.0025692398,"MEAN_MOTION_DOT":-0.00468872,"MEAN_MOTION_DDOT":0},{"OBJECT_NAME":"STARLINK-36345","OBJECT_ID":"2026-054M","EPOCH":"2026-03-31T06:00:02.000160","MEAN_MOTION":15.75133311,"ECCENTRICITY":9.842e-5,"INCLINATION":53.1606,"RA_OF_ASC_NODE":204.6427,"ARG_OF_PERICENTER":90.7428,"MEAN_ANOMALY":258.9282,"EPHEMERIS_TYPE":0,"CLASSIFICATION_TYPE":"U","NORAD_CAT_ID":68243,"ELEMENT_SET_NO":999,"REV_AT_EPOCH":341,"BSTAR":0.0012172792,"MEAN_MOTION_DOT":0.00189313,"MEAN_MOTION_DDOT":0},{"OBJECT_NAME":"STARLINK-36310","OBJECT_ID":"2026-054N","EPOCH":"2026-03-31T07:16:58.319328","MEAN_MOTION":15.80967083,"ECCENTRICITY":0.00022547,"INCLINATION":53.1599,"RA_OF_ASC_NODE":204.2403,"ARG_OF_PERICENTER":98.2536,"MEAN_ANOMALY":261.8743,"EPHEMERIS_TYPE":0,"CLASSIFICATION_TYPE":"U","NORAD_CAT_ID":68244,"ELEMENT_SET_NO":999,"REV_AT_EPOCH":219,"BSTAR":0.0016472374,"MEAN_MOTION_DOT":0.00338966,"MEAN_MOTION_DDOT":0},{"OBJECT_NAME":"STARLINK-36247","OBJECT_ID":"2026-054P","EPOCH":"2026-03-31T07:18:03.157344","MEAN_MOTION":15.80914278,"ECCENTRICITY":0.00012901,"INCLINATION":53.1599,"RA_OF_ASC_NODE":204.2462,"ARG_OF_PERICENTER":56.3771,"MEAN_ANOMALY":303.7375,"EPHEMERIS_TYPE":0,"CLASSIFICATION_TYPE":"U","NORAD_CAT_ID":68245,"ELEMENT_SET_NO":999,"REV_AT_EPOCH":219,"BSTAR":0.00069521328,"MEAN_MOTION_DOT":0.00139008,"MEAN_MOTION_DDOT":0},{"OBJECT_NAME":"STARLINK-37043","OBJECT_ID":"2026-054Q","EPOCH":"2026-03-31T07:15:53.415648","MEAN_MOTION":15.80970796,"ECCENTRICITY":0.00020856,"INCLINATION":53.1599,"RA_OF_ASC_NODE":204.2354,"ARG_OF_PERICENTER":94.6811,"MEAN_ANOMALY":265.445,"EPHEMERIS_TYPE":0,"CLASSIFICATION_TYPE":"U","NORAD_CAT_ID":68246,"ELEMENT_SET_NO":999,"REV_AT_EPOCH":219,"BSTAR":0.001678902,"MEAN_MOTION_DOT":0.00345831,"MEAN_MOTION_DDOT":0},{"OBJECT_NAME":"STARLINK-37044","OBJECT_ID":"2026-054R","EPOCH":"2026-03-31T07:14:48.670944","MEAN_MOTION":15.8096724,"ECCENTRICITY":0.00020505,"INCLINATION":53.1601,"RA_OF_ASC_NODE":204.2299,"ARG_OF_PERICENTER":97.5051,"MEAN_ANOMALY":262.6205,"EPHEMERIS_TYPE":0,"CLASSIFICATION_TYPE":"U","NORAD_CAT_ID":68247,"ELEMENT_SET_NO":999,"REV_AT_EPOCH":219,"BSTAR":0.0016738296,"MEAN_MOTION_DOT":0.00344681,"MEAN_MOTION_DDOT":0},{"OBJECT_NAME":"STARLINK-36997","OBJECT_ID":"2026-054S","EPOCH":"2026-03-31T06:00:02.000160","MEAN_MOTION":15.75169475,"ECCENTRICITY":0.00011203,"INCLINATION":53.1606,"RA_OF_ASC_NODE":204.5898,"ARG_OF_PERICENTER":78.4738,"MEAN_ANOMALY":296.9414,"EPHEMERIS_TYPE":0,"CLASSIFICATION_TYPE":"U","NORAD_CAT_ID":68248,"ELEMENT_SET_NO":999,"REV_AT_EPOCH":337,"BSTAR":0.00078494951,"MEAN_MOTION_DOT":0.0012105,"MEAN_MOTION_DDOT":0},{"OBJECT_NAME":"STARLINK-37141","OBJECT_ID":"2026-054T","EPOCH":"2026-03-31T07:12:38.907648","MEAN_MOTION":15.80942835,"ECCENTRICITY":0.00010178,"INCLINATION":53.1598,"RA_OF_ASC_NODE":204.2206,"ARG_OF_PERICENTER":47.8488,"MEAN_ANOMALY":312.2621,"EPHEMERIS_TYPE":0,"CLASSIFICATION_TYPE":"U","NORAD_CAT_ID":68249,"ELEMENT_SET_NO":999,"REV_AT_EPOCH":219,"BSTAR":0.00099718841,"MEAN_MOTION_DOT":0.00201419,"MEAN_MOTION_DDOT":0},{"OBJECT_NAME":"STARLINK-37087","OBJECT_ID":"2026-054U","EPOCH":"2026-03-31T06:00:02.000160","MEAN_MOTION":15.75264116,"ECCENTRICITY":8.23e-5,"INCLINATION":53.1598,"RA_OF_ASC_NODE":204.4884,"ARG_OF_PERICENTER":103.1239,"MEAN_ANOMALY":321.9144,"EPHEMERIS_TYPE":0,"CLASSIFICATION_TYPE":"U","NORAD_CAT_ID":68250,"ELEMENT_SET_NO":999,"REV_AT_EPOCH":337,"BSTAR":-0.00038337791,"MEAN_MOTION_DOT":-0.00059059,"MEAN_MOTION_DDOT":0},{"OBJECT_NAME":"STARLINK-36274","OBJECT_ID":"2026-054V","EPOCH":"2026-03-31T06:00:02.000160","MEAN_MOTION":15.75165447,"ECCENTRICITY":9.761e-5,"INCLINATION":53.1603,"RA_OF_ASC_NODE":204.541,"ARG_OF_PERICENTER":99.8813,"MEAN_ANOMALY":299.4257,"EPHEMERIS_TYPE":0,"CLASSIFICATION_TYPE":"U","NORAD_CAT_ID":68251,"ELEMENT_SET_NO":999,"REV_AT_EPOCH":341,"BSTAR":0.00079565521,"MEAN_MOTION_DOT":0.00122712,"MEAN_MOTION_DDOT":0},{"OBJECT_NAME":"STARLINK-37085","OBJECT_ID":"2026-054W","EPOCH":"2026-03-31T07:09:24.380640","MEAN_MOTION":15.80958448,"ECCENTRICITY":0.0001291,"INCLINATION":53.1596,"RA_OF_ASC_NODE":204.205,"ARG_OF_PERICENTER":93.5697,"MEAN_ANOMALY":266.5474,"EPHEMERIS_TYPE":0,"CLASSIFICATION_TYPE":"U","NORAD_CAT_ID":68252,"ELEMENT_SET_NO":999,"REV_AT_EPOCH":219,"BSTAR":0.001065601,"MEAN_MOTION_DOT":0.00215803,"MEAN_MOTION_DDOT":0},{"OBJECT_NAME":"STARLINK-37086","OBJECT_ID":"2026-054X","EPOCH":"2026-03-31T01:04:11.323200","MEAN_MOTION":15.81077295,"ECCENTRICITY":0.0001766,"INCLINATION":53.1593,"RA_OF_ASC_NODE":205.4671,"ARG_OF_PERICENTER":68.1488,"MEAN_ANOMALY":291.9723,"EPHEMERIS_TYPE":0,"CLASSIFICATION_TYPE":"U","NORAD_CAT_ID":68253,"ELEMENT_SET_NO":999,"REV_AT_EPOCH":215,"BSTAR":0.0026752411,"MEAN_MOTION_DOT":0.00568917,"MEAN_MOTION_DDOT":0},{"OBJECT_NAME":"STARLINK-37084","OBJECT_ID":"2026-054Y","EPOCH":"2026-03-31T07:06:10.110240","MEAN_MOTION":15.80939921,"ECCENTRICITY":9.959e-5,"INCLINATION":53.1595,"RA_OF_ASC_NODE":204.1904,"ARG_OF_PERICENTER":56.867,"MEAN_ANOMALY":303.2449,"EPHEMERIS_TYPE":0,"CLASSIFICATION_TYPE":"U","NORAD_CAT_ID":68254,"ELEMENT_SET_NO":999,"REV_AT_EPOCH":219,"BSTAR":0.00099650166,"MEAN_MOTION_DOT":0.00201248,"MEAN_MOTION_DDOT":0},{"OBJECT_NAME":"STARLINK-37075","OBJECT_ID":"2026-054Z","EPOCH":"2026-03-31T05:36:12.740256","MEAN_MOTION":15.80934707,"ECCENTRICITY":0.00011436,"INCLINATION":53.1596,"RA_OF_ASC_NODE":204.5124,"ARG_OF_PERICENTER":43.6451,"MEAN_ANOMALY":316.4662,"EPHEMERIS_TYPE":0,"CLASSIFICATION_TYPE":"U","NORAD_CAT_ID":68255,"ELEMENT_SET_NO":999,"REV_AT_EPOCH":218,"BSTAR":0.0010968575,"MEAN_MOTION_DOT":0.00222073,"MEAN_MOTION_DDOT":0},{"OBJECT_NAME":"STARLINK-36333","OBJECT_ID":"2026-054AA","EPOCH":"2026-03-31T05:34:03.160128","MEAN_MOTION":15.80928431,"ECCENTRICITY":0.00012568,"INCLINATION":53.1593,"RA_OF_ASC_NODE":204.5018,"ARG_OF_PERICENTER":33.456,"MEAN_ANOMALY":326.6542,"EPHEMERIS_TYPE":0,"CLASSIFICATION_TYPE":"U","NORAD_CAT_ID":68256,"ELEMENT_SET_NO":999,"REV_AT_EPOCH":218,"BSTAR":0.0009743727,"MEAN_MOTION_DOT":0.00196551,"MEAN_MOTION_DDOT":0}]
