STARLINK-37094          
1 68241U 26054K   26090.30645347  .00200342  00000+0  99235-3 0  9998
2 68241  53.1599 204.2612 0001114 117.6905 242.4231 15.80935106  2196
STARLINK-36356          
1 68242U 26054L   26089.73680966 -.00468872  00000+0 -25692-2 0  9991
2 68242  53.1596 207.1073 0000503  49.8547 310.2520 15.80312000  2104
STARLINK-36345          
1 68243U 26054M   26090.25002315  .00189313  00000+0  12173-2 0  9995
2 68243  53.1606 204.6427 0000984  90.7428 258.9282 15.75133311  3416
STARLINK-36310          
1 68244U 26054N   26090.30345277  .00338966  00000+0  16472-2 0  9995
2 68244  53.1599 204.2403 0002254  98.2536 261.8743 15.80967083  2199
STARLINK-36247          
1 68245U 26054P   26090.30420321  .00139008  00000+0  69521-3 0  9990
2 68245  53.1599 204.2462 0001290  56.3771 303.7375 15.80914278  2195
STARLINK-37043          
1 68246U 26054Q   26090.30270157  .00345831  00000+0  16789-2 0  9991
2 68246  53.1599 204.2354 0002085  94.6811 265.4450 15.80970796  2194
STARLINK-37044          
1 68247U 26054R   26090.30195221  .00344681  00000+0  16738-2 0  9996
2 68247  53.1601 204.2299 0002050  97.5051 262.6205 15.80967240  2194
STARLINK-36997          
1 68248U 26054S   26090.25002315  .00121050  00000+0  78495-3 0  9994
2 68248  53.1606 204.5898 0001120  78.4738 296.9414 15.75169475  3376
STARLINK-37141          
1 68249U 26054T   26090.30045032  .00201419  00000+0  99719-3 0  9994
2 68249  53.1598 204.2206 0001017  47.8488 312.2621 15.80942835  2190
STARLINK-37087          
1 68250U 26054U   26090.25002315 -.00059059  00000+0 -38338-3 0  9990
2 68250  53.1598 204.4884 0000823 103.1239 321.9144 15.75264116  3371
STARLINK-36274          
1 68251U 26054V   26090.25002315  .00122712  00000+0  79566-3 0  9994
2 68251  53.1603 204.5410 0000976  99.8813 299.4257 15.75165447  3419
STARLINK-37085          
1 68252U 26054W   26090.29819885  .00215803  00000+0  10656-2 0  9995
2 68252  53.1596 204.2050 0001291  93.5697 266.5474 15.80958448  2197
STARLINK-37086          
1 68253U 26054X   26090.04457550  .00568917  00000+0  26752-2 0  9997
2 68253  53.1593 205.4671 0001766  68.1488 291.9723 15.81077295  2158
STARLINK-37084          
1 68254U 26054Y   26090.29595035  .00201248  00000+0  99650-3 0  9995
2 68254  53.1595 204.1904 0000995  56.8670 303.2449 15.80939921  2194
STARLINK-37075          
1 68255U 26054Z   26090.23348079  .00222073  00000+0  10969-2 0  9998
2 68255  53.1596 204.5124 0001143  43.6451 316.4662 15.80934707  2180
STARLINK-36333          
1 68256U 26054AA  26090.23198102  .00196551  00000+0  97437-3 0  9996
2 68256  53.1593 204.5018 0001256  33.4560 326.6542 15.80928431  2180
